{
"type": "FeatureCollection",
"name": "Abeti Soprani Pescopennataro",
"crs": { "type": "name", "properties": { "name": "urn:ogc:def:crs:OGC:1.3:CRS84" } },
"features": [
{ "type": "Feature", "properties": { "SITECODE": "IT7218215", "SITENAME": "Abeti Soprani - Monte Campo - Monte Castelbarone - Sorgenti del Verde", "RELEASE_DA": "2022-12-14", "MS": "IT", "SITETYPE": "B", "INSPIRE_ID": null }, "geometry": { "type": "MultiPolygon", "coordinates": [ [ [ [ 14.333709775346033, 41.879027322965307 ], [ 14.333796019192652, 41.878784554766234 ], [ 14.333846357796926, 41.878642854998596 ], [ 14.333982904322253, 41.878402428573658 ], [ 14.334146639965084, 41.878259030523232 ], [ 14.334188478066579, 41.878222388042204 ], [ 14.334229093253491, 41.878164858963913 ], [ 14.334479636529554, 41.877919124406894 ], [ 14.334776662411647, 41.877734240993746 ], [ 14.335129572032381, 41.877479234349849 ], [ 14.335251109347023, 41.877275518135072 ], [ 14.335365910444303, 41.877009099371065 ], [ 14.335666022442005, 41.876391953310524 ], [ 14.335797701994382, 41.876084236803472 ], [ 14.33593310171778, 41.875911382547748 ], [ 14.336057218093277, 41.875891597664371 ], [ 14.336285764619422, 41.875828440665494 ], [ 14.336391845683588, 41.875827343168019 ], [ 14.336456700689391, 41.875827916653925 ], [ 14.336611437276405, 41.875803249830959 ], [ 14.336733417366538, 41.875828429397075 ], [ 14.337056311846643, 41.875824038895942 ], [ 14.337371292074787, 41.875755342639629 ], [ 14.337659641749918, 41.875728398560412 ], [ 14.33788238057697, 41.87561933126986 ], [ 14.338096506213885, 41.875514480366817 ], [ 14.338339903686558, 41.875219553625307 ], [ 14.338501184697664, 41.874914951605994 ], [ 14.3385755059393, 41.874791151602572 ], [ 14.338591441499055, 41.874702683481431 ], [ 14.338673970819102, 41.874482777334187 ], [ 14.338962382131466, 41.874068722994913 ], [ 14.339003075662546, 41.874020906257364 ], [ 14.339115155090225, 41.873828529008662 ], [ 14.33939453629759, 41.873531922399529 ], [ 14.339511362868789, 41.873402571326615 ], [ 14.339599713636989, 41.873304748144292 ], [ 14.339678306311685, 41.873202618079077 ], [ 14.339904465053754, 41.87279146419305 ], [ 14.340176737499231, 41.872382660542499 ], [ 14.340446369666619, 41.872068505454173 ], [ 14.340708500956929, 41.871745696403671 ], [ 14.340974393508448, 41.871314682815807 ], [ 14.340980432407738, 41.871303817829357 ], [ 14.341034484883522, 41.871137292593893 ], [ 14.341183754588043, 41.870779231590902 ], [ 14.341214903112338, 41.870693858589888 ], [ 14.341217827940222, 41.870596638871028 ], [ 14.341332400519546, 41.870458361791222 ], [ 14.341391516976746, 41.870364427380991 ], [ 14.341430674546363, 41.870339754758277 ], [ 14.341431200218215, 41.870339120322846 ], [ 14.341432580620861, 41.870338553767191 ], [ 14.341646112537015, 41.870204009745692 ], [ 14.341768732249278, 41.87004974791148 ], [ 14.341983040905882, 41.869978235162741 ], [ 14.342035314818895, 41.869960790191826 ], [ 14.342099482647738, 41.869967728256398 ], [ 14.342484453546476, 41.869736336434464 ], [ 14.342839147955909, 41.869629762851218 ], [ 14.343120360162937, 41.869472602634332 ], [ 14.3433684601646, 41.869243101687744 ], [ 14.343379866179832, 41.869222869253029 ], [ 14.343437882331559, 41.869081828181343 ], [ 14.343482827985119, 41.86897255788837 ], [ 14.343336781573948, 41.868647786843944 ], [ 14.343299943774349, 41.868555665494753 ], [ 14.343234086599768, 41.868548855977309 ], [ 14.342941658587881, 41.868518613404362 ], [ 14.342861080940077, 41.868510083440633 ], [ 14.342735081495599, 41.868496743291011 ], [ 14.342543887072232, 41.868388630423723 ], [ 14.342521415103338, 41.868173618162118 ], [ 14.342518003178258, 41.86805038406996 ], [ 14.342513200723786, 41.867876918210143 ], [ 14.342514471973333, 41.86780107049335 ], [ 14.342515190045699, 41.867748613938424 ], [ 14.342515906311476, 41.86771537712383 ], [ 14.342518484399518, 41.867561583323166 ], [ 14.342520010905607, 41.867327446241021 ], [ 14.342619386140584, 41.867111250672735 ], [ 14.342883715678445, 41.866923368498661 ], [ 14.343102679268965, 41.866751107230861 ], [ 14.343260904589808, 41.866608686493869 ], [ 14.343265431731099, 41.866338399012591 ], [ 14.343209984182041, 41.865962880483906 ], [ 14.343176664310326, 41.865527812560536 ], [ 14.343163521615852, 41.865276661713949 ], [ 14.343156460131928, 41.865141646072985 ], [ 14.34313399943475, 41.864836608279766 ], [ 14.343118702032136, 41.864148629258708 ], [ 14.343109537598218, 41.864108371866145 ], [ 14.343070764089981, 41.863947442686502 ], [ 14.343070303879584, 41.863936025861349 ], [ 14.343049755483969, 41.863845760354444 ], [ 14.342992429798587, 41.863555852212755 ], [ 14.342934358147794, 41.863238971930222 ], [ 14.342954999349004, 41.863031999621384 ], [ 14.34295278815099, 41.863021198967957 ], [ 14.342956472419035, 41.863017228893682 ], [ 14.343005917205673, 41.862521434261076 ], [ 14.342447483148909, 41.862383939920129 ], [ 14.341858581951362, 41.862109827061126 ], [ 14.341273442317835, 41.861772518311611 ], [ 14.34101746418798, 41.861338832659577 ], [ 14.341270197686805, 41.860867915866137 ], [ 14.341332488661045, 41.860423886447805 ], [ 14.340979433061637, 41.859945214097813 ], [ 14.340354238685602, 41.859416214144375 ], [ 14.339936329943303, 41.859026086538123 ], [ 14.339488064248169, 41.858632871428853 ], [ 14.339024067002031, 41.858195375757937 ], [ 14.338481372176052, 41.857680523215812 ], [ 14.338045881862566, 41.857223689286528 ], [ 14.337859651741921, 41.856867767525245 ], [ 14.337923103281016, 41.856365168638774 ], [ 14.337864622429549, 41.856385899691816 ], [ 14.337435457555374, 41.856221351552378 ], [ 14.329591081815762, 41.853809400760539 ], [ 14.329423911950402, 41.853790173286349 ], [ 14.328931386346648, 41.853768080051822 ], [ 14.328448217453662, 41.853786060263452 ], [ 14.328016040110409, 41.853765656523485 ], [ 14.327533218259846, 41.85386013905206 ], [ 14.327195866505715, 41.853857826623177 ], [ 14.325521563172702, 41.853634112917597 ], [ 14.32517185997521, 41.853591857884936 ], [ 14.324729195522426, 41.853553923997708 ], [ 14.324379864796201, 41.853516150518644 ], [ 14.323946958546021, 41.85345075199902 ], [ 14.323502042335813, 41.85342192063159 ], [ 14.322707796974598, 41.853355308811615 ], [ 14.322393723706188, 41.853270877365624 ], [ 14.321865200842963, 41.853286436045565 ], [ 14.320647779997323, 41.853198962709257 ], [ 14.320287203823218, 41.85317070170106 ], [ 14.319747092241984, 41.85311926998515 ], [ 14.319324660308688, 41.853107383104508 ], [ 14.318819400007968, 41.853076834835072 ], [ 14.318590768158856, 41.853042440529663 ], [ 14.318119219894374, 41.853055335851096 ], [ 14.317674269977285, 41.853098503452543 ], [ 14.317047119280721, 41.853195141723951 ], [ 14.316623138024191, 41.853273342304128 ], [ 14.316153802486655, 41.853349145308684 ], [ 14.315672096903175, 41.853421019220967 ], [ 14.315478665377846, 41.853448002465576 ], [ 14.31511544152707, 41.85346035986089 ], [ 14.3146720354079, 41.853413418533151 ], [ 14.314382312072294, 41.853368346788386 ], [ 14.313949392141431, 41.853338921334263 ], [ 14.313512665349322, 41.853408699113047 ], [ 14.313056126803843, 41.853384866489975 ], [ 14.312598428522611, 41.85341960397038 ], [ 14.312103650714834, 41.853406544909959 ], [ 14.311562378738982, 41.85341364445862 ], [ 14.311165444542423, 41.853382539416664 ], [ 14.310683776747188, 41.853382370175424 ], [ 14.310371158746127, 41.853387863539112 ], [ 14.309817170149213, 41.853350532048879 ], [ 14.309576918115591, 41.853321159665484 ], [ 14.309167269411414, 41.853245623806224 ], [ 14.308795465493986, 41.853190838837222 ], [ 14.308470107637467, 41.853187915758554 ], [ 14.307962591728298, 41.853166426429802 ], [ 14.307613218486168, 41.853200623683108 ], [ 14.307203522478481, 41.853197104198507 ], [ 14.306797221990212, 41.853161916584121 ], [ 14.306444453108288, 41.853227776015849 ], [ 14.306193371755718, 41.853140381821319 ], [ 14.30604958210337, 41.852930981633698 ], [ 14.305798207738777, 41.852731066831147 ], [ 14.305560316686227, 41.852548532155303 ], [ 14.305176576871022, 41.852422267805323 ], [ 14.304850531322726, 41.85233834220098 ], [ 14.304492269340759, 41.852228900715062 ], [ 14.304035049354548, 41.852124040224005 ], [ 14.303554184937454, 41.852060785715565 ], [ 14.303206408478387, 41.851968859005545 ], [ 14.30271238251559, 41.851964726807992 ], [ 14.302229579826244, 41.851987079972247 ], [ 14.301805526682344, 41.852137249229628 ], [ 14.30140731981173, 41.852308727196387 ], [ 14.301081851121221, 41.852449828996953 ], [ 14.300827296074516, 41.8525021232307 ], [ 14.30055180606068, 41.85248336534093 ], [ 14.300139884971838, 41.852452915327298 ], [ 14.29970922870818, 41.852414328108736 ], [ 14.29921374144546, 41.852356232332951 ], [ 14.29880519130675, 41.852330122832981 ], [ 14.298577652408989, 41.852345151400179 ], [ 14.298141711759524, 41.852351816086411 ], [ 14.29768518031201, 41.852327922202896 ], [ 14.297263892910591, 41.852293392766079 ], [ 14.29666239846785, 41.852154665313982 ], [ 14.296242318619777, 41.852025549005077 ], [ 14.29602532247279, 41.851986069749543 ], [ 14.295640702553252, 41.852030862792326 ], [ 14.295325117283607, 41.85200044213525 ], [ 14.294893659624851, 41.852024891538385 ], [ 14.294650385459217, 41.852031637943945 ], [ 14.294412365913317, 41.852029137337844 ], [ 14.294266633174207, 41.85194134692108 ], [ 14.29409067110285, 41.851706411221528 ], [ 14.293922965159682, 41.851462090023823 ], [ 14.293685143165902, 41.85124351615837 ], [ 14.293410595828412, 41.851017637409136 ], [ 14.293112432008666, 41.850797349886541 ], [ 14.292786473587054, 41.850641364836193 ], [ 14.292511058645692, 41.850550563313341 ], [ 14.292247638261545, 41.850459205962146 ], [ 14.291874411944404, 41.850350414960772 ], [ 14.291549098229993, 41.850311430536273 ], [ 14.291261657062647, 41.850257191440797 ], [ 14.290961816491304, 41.850235033839297 ], [ 14.290419955709623, 41.85008901583128 ], [ 14.289240812815773, 41.850026444242872 ], [ 14.289046565483872, 41.850116439065239 ], [ 14.288913032778064, 41.850212631603753 ], [ 14.288684174156245, 41.85043026001091 ], [ 14.28845049880881, 41.850589593797018 ], [ 14.288076954832473, 41.850804900038924 ], [ 14.287712106312156, 41.850943280738591 ], [ 14.287265438417487, 41.851184466231658 ], [ 14.287035568853097, 41.851280603532942 ], [ 14.286865230991015, 41.851441510712682 ], [ 14.286874307749578, 41.851733677443534 ], [ 14.28691899963529, 41.852019697856939 ], [ 14.286975353646925, 41.852264668673392 ], [ 14.286794463742407, 41.852480079043552 ], [ 14.286466068556262, 41.852513243066177 ], [ 14.286164663059198, 41.852545160421009 ], [ 14.285959111528154, 41.852680684423248 ], [ 14.285846783825599, 41.852924438331492 ], [ 14.285845008749604, 41.853194599290283 ], [ 14.285791696812099, 41.853642689557304 ], [ 14.285763560803344, 41.854031100362135 ], [ 14.285617095129529, 41.854298936351285 ], [ 14.285431751306458, 41.854460534942987 ], [ 14.285297575398152, 41.854804325382332 ], [ 14.285221193291759, 41.855082429768188 ], [ 14.285171024378208, 41.855386332524922 ], [ 14.285116596706601, 41.855820969968299 ], [ 14.285342746834543, 41.856080612626734 ], [ 14.285534908763172, 41.856220287028812 ], [ 14.285832038222596, 41.856355116537152 ], [ 14.286181264333052, 41.856501044708558 ], [ 14.286601357989623, 41.856630197413395 ], [ 14.287010234747143, 41.85673285738752 ], [ 14.287394748371375, 41.856832140212298 ], [ 14.287803627438782, 41.856934797199465 ], [ 14.288043111567138, 41.856991259048215 ], [ 14.288354609853569, 41.857008385251035 ], [ 14.288573136041681, 41.857029802963304 ], [ 14.28889770745748, 41.857095837877196 ], [ 14.289307331221352, 41.857207457711716 ], [ 14.289484914453947, 41.857316290100222 ], [ 14.289641840565281, 41.857466588391397 ], [ 14.289772180260396, 41.857586604133736 ], [ 14.289892412555977, 41.857693583444579 ], [ 14.290095877251431, 41.857787715372432 ], [ 14.290262276385521, 41.857834044313272 ], [ 14.29046537258581, 41.857923691247656 ], [ 14.290669917999491, 41.858067286079269 ], [ 14.290778492967721, 41.858215315034272 ], [ 14.290896435321134, 41.858367411565858 ], [ 14.291049930186679, 41.858585385600499 ], [ 14.291145398235313, 41.858720515690557 ], [ 14.29137195375846, 41.85898462767215 ], [ 14.291203192476836, 41.859055443532561 ], [ 14.290926899322789, 41.859063706882182 ], [ 14.290319348867349, 41.859325841280544 ], [ 14.290256162503441, 41.859544822716131 ], [ 14.290338015129031, 41.859806619119247 ], [ 14.290393212093827, 41.860110157976806 ], [ 14.290523323226148, 41.86048225672571 ], [ 14.290686326906831, 41.860960868000824 ], [ 14.290791334303652, 41.861320622081159 ], [ 14.290894895027701, 41.861626427675418 ], [ 14.29101230781078, 41.861954099910683 ], [ 14.291165713958559, 41.86228010907589 ], [ 14.291173670102333, 41.862594832729762 ], [ 14.291134750136816, 41.862925226142394 ], [ 14.291023945078296, 41.863150909361856 ], [ 14.290877552080424, 41.863346727215571 ], [ 14.290644816496467, 41.863663568580527 ], [ 14.290605152233134, 41.863984993540065 ], [ 14.290573947273179, 41.864481578244501 ], [ 14.290675103812502, 41.864758236309797 ], [ 14.290725775177874, 41.864897686789156 ], [ 14.291046282990196, 41.865351014613267 ], [ 14.291499916529682, 41.865775684703827 ], [ 14.291940850355058, 41.866155926343154 ], [ 14.292384821446849, 41.866500015127066 ], [ 14.292766579857519, 41.866819969325228 ], [ 14.293159970654836, 41.867134884114151 ], [ 14.293492601502848, 41.867479613132097 ], [ 14.293838622498422, 41.867949758766294 ], [ 14.294001675259036, 41.868428361544474 ], [ 14.293934472465279, 41.868962622535697 ], [ 14.293772888768908, 41.869375208829162 ], [ 14.293528427829866, 41.869805129818637 ], [ 14.29315089614885, 41.870191687094049 ], [ 14.292349373115359, 41.870912929901934 ], [ 14.291798424100376, 41.871496551364821 ], [ 14.291338188857122, 41.871684365873804 ], [ 14.291205679255144, 41.871752437931249 ], [ 14.291719622427028, 41.871773945774628 ], [ 14.291969569334091, 41.871937943248511 ], [ 14.292163116764968, 41.872275594249629 ], [ 14.292273122905701, 41.872531582277276 ], [ 14.292452877628877, 41.872784346342435 ], [ 14.292856587664334, 41.872923230516818 ], [ 14.29313411126178, 41.872865390383694 ], [ 14.293900534540157, 41.872865970692125 ], [ 14.294095269115944, 41.872717430281917 ], [ 14.294165859631441, 41.872606136807633 ], [ 14.294438689128892, 41.872336952068316 ], [ 14.294718196916353, 41.872148480824649 ], [ 14.294957568604502, 41.871975367968062 ], [ 14.295459829110818, 41.871749586647034 ], [ 14.295686471153648, 41.87155005349544 ], [ 14.295912385304421, 41.871323547094853 ], [ 14.29603065705702, 41.871133526371871 ], [ 14.296550660520143, 41.870749376581266 ], [ 14.297153038653089, 41.870496451069293 ], [ 14.29736163635093, 41.870342761733511 ], [ 14.297453475748947, 41.870370022288185 ], [ 14.297719557508158, 41.870528759504744 ], [ 14.297960470103209, 41.87074717677794 ], [ 14.298251717756186, 41.870855235141335 ], [ 14.298680659924857, 41.870853392734276 ], [ 14.298955090092189, 41.870894709174372 ], [ 14.299266901144573, 41.871078334284839 ], [ 14.299546867852536, 41.871231923840284 ], [ 14.300111036569826, 41.871399365682464 ], [ 14.300293115693851, 41.871588992662375 ], [ 14.30038304481398, 41.871665851980275 ], [ 14.300855741739676, 41.871819519357274 ], [ 14.301176603820574, 41.871948705324563 ], [ 14.301687200146421, 41.872069105904629 ], [ 14.301926051872337, 41.872062548974164 ], [ 14.302110198228469, 41.872004508675523 ], [ 14.302470565133655, 41.871956313812753 ], [ 14.302610093198362, 41.87189583826482 ], [ 14.303893708744274, 41.87168785081839 ], [ 14.304087223394637, 41.871633874749556 ], [ 14.304761401307422, 41.871611648123348 ], [ 14.305015689950924, 41.871509842866892 ], [ 14.305717848225022, 41.871688869322945 ], [ 14.306266250024901, 41.871911025975443 ], [ 14.306730296530574, 41.87212358503934 ], [ 14.307247964598695, 41.872338159176429 ], [ 14.307667813039403, 41.872489746521403 ], [ 14.3084528060911, 41.872741436514637 ], [ 14.308749304095581, 41.87288523388127 ], [ 14.309171541286211, 41.872829648142741 ], [ 14.309296854700259, 41.872706806681641 ], [ 14.309633970065422, 41.872659666475833 ], [ 14.309774230171721, 41.872617152921926 ], [ 14.310075809964387, 41.872432122255979 ], [ 14.310440048680134, 41.872176665781964 ], [ 14.310611498478087, 41.872020174365645 ], [ 14.311006478893191, 41.871763290911282 ], [ 14.311656844467102, 41.871427041725369 ], [ 14.311935968620846, 41.871153022584451 ], [ 14.312332832315834, 41.87086453889826 ], [ 14.31287483785581, 41.870501800861653 ], [ 14.313116049887146, 41.870288054779408 ], [ 14.313550377183091, 41.870033838303236 ], [ 14.313783723233739, 41.869797948603036 ], [ 14.313886938846093, 41.869608608859551 ], [ 14.313888521040575, 41.869464495902037 ], [ 14.313783622946413, 41.869316322102094 ], [ 14.313679859209524, 41.869154592293604 ], [ 14.313552481604685, 41.868980454184786 ], [ 14.313583635384187, 41.868920492271464 ], [ 14.313955680472121, 41.868723179112777 ], [ 14.314500471989911, 41.868693395059594 ], [ 14.315160014785107, 41.868622272611809 ], [ 14.315355881551636, 41.868343107710821 ], [ 14.315452772467902, 41.868050531551233 ], [ 14.315580397820362, 41.867774533874538 ], [ 14.315637515860747, 41.867537819036201 ], [ 14.315709988514811, 41.86733190021841 ], [ 14.315837616386492, 41.867046899514399 ], [ 14.316072468214402, 41.866765923967655 ], [ 14.316204893133635, 41.866620238454232 ], [ 14.316568290457141, 41.866427818880041 ], [ 14.31687725302713, 41.866368462450929 ], [ 14.317266406977149, 41.866386402172424 ], [ 14.317736973169222, 41.866297032997167 ], [ 14.317852105028221, 41.866233170142287 ], [ 14.318089810869649, 41.866213128761885 ], [ 14.318525409407769, 41.86631893163824 ], [ 14.318793464930279, 41.866337990646223 ], [ 14.31932922425541, 41.866326607879671 ], [ 14.319608609471169, 41.866174091887117 ], [ 14.319747370331594, 41.866086623519067 ], [ 14.320249097480907, 41.865892267786393 ], [ 14.320672426604519, 41.865778073407164 ], [ 14.321051154242815, 41.865634441664852 ], [ 14.322023476816952, 41.86523365990206 ], [ 14.322432959845989, 41.865043581897382 ], [ 14.323070741650991, 41.864892403434361 ], [ 14.323410835801814, 41.864764063022051 ], [ 14.32368599845881, 41.864805285460328 ], [ 14.324210763783126, 41.865050960941005 ], [ 14.324507261983943, 41.865176712446441 ], [ 14.32476551369551, 41.865322246267297 ], [ 14.324926354846566, 41.865310266080229 ], [ 14.325143474371702, 41.865187638600744 ], [ 14.325329481487749, 41.865052955062019 ], [ 14.325634386049256, 41.864782205456848 ], [ 14.326874160190881, 41.863869309027557 ], [ 14.32710626141956, 41.863763986711618 ], [ 14.327492759510326, 41.863822526332378 ], [ 14.327846288983906, 41.863819582068018 ], [ 14.328045728183756, 41.863837310342376 ], [ 14.328666562979871, 41.863826427117438 ], [ 14.328914020462737, 41.863751893951623 ], [ 14.329234261057453, 41.863520932659597 ], [ 14.329509112448191, 41.863359601715757 ], [ 14.329819201504495, 41.86320563107347 ], [ 14.330011914568516, 41.863151649282891 ], [ 14.33016637849296, 41.863126455019277 ], [ 14.330597146145129, 41.863074894608062 ], [ 14.330765089316575, 41.863103086139539 ], [ 14.331039113159445, 41.863175852436804 ], [ 14.331235139083452, 41.863315266456816 ], [ 14.331360303617501, 41.863480484765532 ], [ 14.331637276368159, 41.86372415821166 ], [ 14.331942801464988, 41.863777451341562 ], [ 14.332313913805322, 41.863895206924731 ], [ 14.332579311064176, 41.86399987960926 ], [ 14.332812068508995, 41.86419159475863 ], [ 14.332951463895276, 41.864428168150191 ], [ 14.333041727079149, 41.864743549605087 ], [ 14.333208086946261, 41.865095898459856 ], [ 14.333269872653247, 41.865367594949802 ], [ 14.333188781737464, 41.865776480504096 ], [ 14.333154945718485, 41.866120147881205 ], [ 14.333215664448714, 41.866180337168913 ], [ 14.333090720853441, 41.866541751155438 ], [ 14.333098910509806, 41.866757427745718 ], [ 14.333183182405971, 41.867064086952404 ], [ 14.333100130668928, 41.867783646704616 ], [ 14.332983437862801, 41.868126672064271 ], [ 14.332752032715574, 41.868412023389233 ], [ 14.332555138425695, 41.868623746881369 ], [ 14.332317751186636, 41.868837355477936 ], [ 14.331965239570986, 41.86912384302299 ], [ 14.331821592172755, 41.86929707680175 ], [ 14.331750252301772, 41.869651492650988 ], [ 14.331523672793768, 41.87006715174504 ], [ 14.331370247611554, 41.870330863595662 ], [ 14.330999707116399, 41.870681204339235 ], [ 14.330770166864827, 41.870943958752882 ], [ 14.330576978249923, 41.871254533254877 ], [ 14.330333885645933, 41.871679960690642 ], [ 14.330253903393519, 41.872066286808725 ], [ 14.330095540257707, 41.872505774106145 ], [ 14.330023717718577, 41.873170795352571 ], [ 14.329905411268072, 41.873801970899613 ], [ 14.329801047907891, 41.874202935046931 ], [ 14.329316316951285, 41.875098730678516 ], [ 14.329055178829222, 41.875606017455141 ], [ 14.328915595366237, 41.875900591038942 ], [ 14.328888157417277, 41.876104422497804 ], [ 14.329151329200142, 41.876281225687265 ], [ 14.32956823498839, 41.876477879423284 ], [ 14.330132840471844, 41.876811696212108 ], [ 14.330727815502158, 41.877175604275685 ], [ 14.330997736627234, 41.877388098656169 ], [ 14.331203509940813, 41.877698103534428 ], [ 14.331349290657117, 41.878001899479415 ], [ 14.331568179262296, 41.878360806895671 ], [ 14.332018058269872, 41.878726962743727 ], [ 14.332592086569409, 41.879001812162898 ], [ 14.333123383832316, 41.879224634201094 ], [ 14.333343482446056, 41.879299905523432 ], [ 14.333565850824247, 41.879294049274598 ], [ 14.333697290761661, 41.879117674845254 ], [ 14.333709775346033, 41.879027322965307 ] ] ], [ [ [ 14.289169332408791, 41.871820568444676 ], [ 14.288771285165014, 41.871757588132425 ], [ 14.2886628448418, 41.871740429642827 ], [ 14.288336578397102, 41.871800509882952 ], [ 14.287842219689756, 41.871976382104087 ], [ 14.287394672220648, 41.872208608418134 ], [ 14.287132552407238, 41.872334233191992 ], [ 14.287494862697837, 41.872275181583554 ], [ 14.287893926129229, 41.872166729712113 ], [ 14.288355544887194, 41.872122906281831 ], [ 14.288794749582953, 41.871990091795531 ], [ 14.289211420205167, 41.871894325358298 ], [ 14.289382955360054, 41.871869588326931 ], [ 14.289169332408791, 41.871820568444676 ] ] ], [ [ [ 14.277940515443557, 41.871492385292704 ], [ 14.27770028185277, 41.871390924626034 ], [ 14.277471927625788, 41.871396946650073 ], [ 14.277158057854916, 41.871424914194883 ], [ 14.277058193034994, 41.871522588554868 ], [ 14.277013165361454, 41.871566630377757 ], [ 14.276951854655307, 41.87173600369141 ], [ 14.276815508919404, 41.871944846095936 ], [ 14.276548072147007, 41.872024687818779 ], [ 14.276309276453171, 41.871977173292116 ], [ 14.276055317593411, 41.872074399214199 ], [ 14.27590972176454, 41.872171132908406 ], [ 14.275692088171784, 41.872307195835518 ], [ 14.275637506506678, 41.872377845622779 ], [ 14.275701344028612, 41.87243201650336 ], [ 14.275799528111902, 41.872481508494722 ], [ 14.276325800918285, 41.872637310937215 ], [ 14.276969605840515, 41.872648156771952 ], [ 14.277315754207985, 41.872600696178537 ], [ 14.277387186151691, 41.87243535892253 ], [ 14.277575283002102, 41.87222413408692 ], [ 14.27783203565691, 41.871978236288761 ], [ 14.27800319049944, 41.871826307066065 ], [ 14.278275213966769, 41.871681393682614 ], [ 14.277940515443557, 41.871492385292704 ] ] ] ] } }
]
}
