{
"type": "FeatureCollection",
"name": "Bosco Vallazzuna",
"crs": { "type": "name", "properties": { "name": "urn:ogc:def:crs:OGC:1.3:CRS84" } },
"features": [
{ "type": "Feature", "properties": { "SITECODE": "IT7218217", "SITENAME": "Bosco Vallazzuna", "RELEASE_DA": "2022-12-14", "MS": "IT", "SITETYPE": "B", "INSPIRE_ID": null }, "geometry": { "type": "MultiPolygon", "coordinates": [ [ [ [ 14.323793095131842, 41.896358320375199 ], [ 14.323989319147584, 41.896218661196308 ], [ 14.32411800791032, 41.896127154496952 ], [ 14.324314256359241, 41.895915474685602 ], [ 14.324417480310734, 41.895708119780565 ], [ 14.324732368070864, 41.895175836849333 ], [ 14.325052581351448, 41.894418244602683 ], [ 14.325374200476382, 41.893912654736177 ], [ 14.325378403289358, 41.893691899784358 ], [ 14.325314535227966, 41.892925163094269 ], [ 14.325461010282947, 41.892360200566323 ], [ 14.325669136698004, 41.891387260970895 ], [ 14.325773884661393, 41.891080807352431 ], [ 14.325876322924977, 41.890945507287725 ], [ 14.326027967133928, 41.890596361970793 ], [ 14.326278630822795, 41.890224604993726 ], [ 14.326182285202632, 41.89009855117834 ], [ 14.325945297829305, 41.889965536454781 ], [ 14.325506930453759, 41.889774368804083 ], [ 14.325122556676671, 41.889625701177557 ], [ 14.324788069012854, 41.889470210237668 ], [ 14.323920336168658, 41.889123456531067 ], [ 14.323683333084441, 41.889053453514371 ], [ 14.322983257872302, 41.888703398658052 ], [ 14.322632625226866, 41.888616170476112 ], [ 14.322389269206383, 41.888496947279442 ], [ 14.32229104556956, 41.888402485760658 ], [ 14.32221762798522, 41.888180837901032 ], [ 14.321931193954072, 41.887942083869703 ], [ 14.321589624681366, 41.887719394212979 ], [ 14.321232301842516, 41.887506439107014 ], [ 14.320821724535584, 41.887295956837555 ], [ 14.320311010878157, 41.887094627061295 ], [ 14.319075815641877, 41.886710894472515 ], [ 14.31867353497703, 41.886427998857599 ], [ 14.318395363851858, 41.886206856269794 ], [ 14.317740356914044, 41.885845671806976 ], [ 14.316949970430642, 41.885486269363923 ], [ 14.316515807763766, 41.885245357911522 ], [ 14.31573411393388, 41.884782014184033 ], [ 14.315012049354038, 41.884338403713784 ], [ 14.314610924028601, 41.884059941895941 ], [ 14.314301294492717, 41.883804239761758 ], [ 14.313702225088848, 41.883417929110223 ], [ 14.313339772296009, 41.883079151575885 ], [ 14.313008088848925, 41.882711938923613 ], [ 14.312647215059533, 41.882247051362988 ], [ 14.312431025491025, 41.881910487452927 ], [ 14.311938837450475, 41.881568722139164 ], [ 14.311282577844128, 41.880928482126762 ], [ 14.311049857726552, 41.880664701797372 ], [ 14.31079351569957, 41.880397515534433 ], [ 14.310619652053555, 41.880171515159837 ], [ 14.310593542450157, 41.879938662625804 ], [ 14.310619556076546, 41.879707893666158 ], [ 14.310578452520289, 41.879466733535018 ], [ 14.310599272021074, 41.87914618127909 ], [ 14.310479734864547, 41.879003184647921 ], [ 14.310151342113572, 41.878838365070713 ], [ 14.309740034149717, 41.878744907188995 ], [ 14.309373360824937, 41.878635874846836 ], [ 14.309059904396612, 41.878578389750686 ], [ 14.308578041230982, 41.87857822350724 ], [ 14.308125870064986, 41.87847315108754 ], [ 14.307791083680554, 41.878349131349019 ], [ 14.307401915218392, 41.878241135818925 ], [ 14.306724850389731, 41.8779934396673 ], [ 14.306158709871447, 41.87785763119583 ], [ 14.305797185500477, 41.877910392431517 ], [ 14.305424151137281, 41.877797141708129 ], [ 14.305026354470467, 41.877703040980634 ], [ 14.304690808968596, 41.877606054840946 ], [ 14.304509020613136, 41.877492942786844 ], [ 14.304080463846688, 41.877418268944503 ], [ 14.303789485315363, 41.877404739901955 ], [ 14.303635722575391, 41.877429866039378 ], [ 14.303404267602152, 41.877553117084354 ], [ 14.30328800488426, 41.877576506577135 ], [ 14.302907879860882, 41.87742306399123 ], [ 14.302634703673483, 41.877678780849742 ], [ 14.302529452143116, 41.878025748572071 ], [ 14.302406061354388, 41.87856260719068 ], [ 14.302293313675603, 41.878900919285421 ], [ 14.302087590839534, 41.879207526784704 ], [ 14.301939344413459, 41.879371934045921 ], [ 14.301593972102092, 41.879874057647974 ], [ 14.301249371683239, 41.880340135226184 ], [ 14.301076749084482, 41.880501168328024 ], [ 14.300793661606932, 41.880446755629933 ], [ 14.300641397929009, 41.880462805814879 ], [ 14.300480924949451, 41.880425222343447 ], [ 14.300243948184058, 41.880391179179121 ], [ 14.300163996466598, 41.880489405447655 ], [ 14.299944329758921, 41.880864172538338 ], [ 14.299673133305422, 41.881434877301842 ], [ 14.299658962395316, 41.881818138027086 ], [ 14.299710584038598, 41.881986796311324 ], [ 14.299606523205579, 41.882221174900693 ], [ 14.299527284637984, 41.882364380385823 ], [ 14.299176776001442, 41.883159315541988 ], [ 14.299127894630171, 41.883323622241953 ], [ 14.299171638133128, 41.883497145798593 ], [ 14.299237525277023, 41.883647138164939 ], [ 14.29930892431193, 41.883945417014182 ], [ 14.299444115551525, 41.884195730630829 ], [ 14.299577490658866, 41.884369606799666 ], [ 14.299658725494128, 41.884559400123564 ], [ 14.299751412774414, 41.884978226635305 ], [ 14.299778621319778, 41.885197527522891 ], [ 14.299646522533228, 41.885311671252104 ], [ 14.299475411099213, 41.885436622539054 ], [ 14.299279875916618, 41.885621219821708 ], [ 14.299054672152732, 41.885856703877167 ], [ 14.298821649543953, 41.886016027569703 ], [ 14.298574767646087, 41.886153486901698 ], [ 14.298353602993673, 41.886492310755962 ], [ 14.29800501759785, 41.88671099521396 ], [ 14.297754243968775, 41.887019679370816 ], [ 14.297666665773942, 41.887262296266449 ], [ 14.297674595604441, 41.887667041182759 ], [ 14.297797251703162, 41.888120491746122 ], [ 14.297779884634961, 41.888265334589974 ], [ 14.297841447714816, 41.888672098570296 ], [ 14.297699093067504, 41.888935255241726 ], [ 14.297619822136836, 41.889105468181462 ], [ 14.297668774396724, 41.88933276690058 ], [ 14.297677500100557, 41.890156088485398 ], [ 14.297846301475465, 41.890602902923121 ], [ 14.297741723835253, 41.890994847574426 ], [ 14.297614818781902, 41.891162763451966 ], [ 14.297361699396054, 41.891570583047489 ], [ 14.297250460001393, 41.891845803089666 ], [ 14.297481178992529, 41.892258245074444 ], [ 14.297317919203101, 41.892859960890618 ], [ 14.297451231992509, 41.893132870211318 ], [ 14.297542379189849, 41.893605783559003 ], [ 14.297484822856774, 41.893820004887637 ], [ 14.297340865808676, 41.894200266914048 ], [ 14.297368052718706, 41.894446577065459 ], [ 14.297602367873779, 41.894593279380565 ], [ 14.297876023843697, 41.894796677160471 ], [ 14.297995973213339, 41.894899157399955 ], [ 14.298376154479245, 41.895106627266451 ], [ 14.298492044198024, 41.895123770965611 ], [ 14.298847052417411, 41.895390919413281 ], [ 14.298873509024064, 41.895619258226759 ], [ 14.298915356539164, 41.895833380545113 ], [ 14.298973702175719, 41.896055742081195 ], [ 14.29901079467559, 41.896112541287508 ], [ 14.299306528596963, 41.896400437792039 ], [ 14.299404787180434, 41.896422897418489 ], [ 14.300014524781892, 41.89665574691945 ], [ 14.301032911925562, 41.897184760281434 ], [ 14.301275054258012, 41.897425618720199 ], [ 14.301345673777458, 41.897287312295852 ], [ 14.301538466392806, 41.896778749303344 ], [ 14.301768748689149, 41.896295457951886 ], [ 14.301904392185882, 41.895969589199296 ], [ 14.302190639572554, 41.89537117464377 ], [ 14.302296674320189, 41.895006166120531 ], [ 14.302453626321432, 41.894773836781802 ], [ 14.30262515806959, 41.894608349506079 ], [ 14.303058174245388, 41.894372237177734 ], [ 14.303328588411409, 41.893864576847051 ], [ 14.303469773372807, 41.893641978686851 ], [ 14.303609754692813, 41.893531966589116 ], [ 14.304181165171936, 41.89329394096147 ], [ 14.304558951446534, 41.893172911370129 ], [ 14.304951727919487, 41.893069190847719 ], [ 14.305252584884043, 41.893001237096541 ], [ 14.305666286673741, 41.89301357659452 ], [ 14.306623434582528, 41.893086253329642 ], [ 14.307328926270586, 41.893130075721849 ], [ 14.30821593763088, 41.893201488171314 ], [ 14.309750767030614, 41.893175336178068 ], [ 14.310258293160272, 41.893093283352641 ], [ 14.311435408343595, 41.892867639207928 ], [ 14.312272232750452, 41.892806312254713 ], [ 14.313124047103985, 41.892762287684221 ], [ 14.314177492818342, 41.893014982507324 ], [ 14.314391624910943, 41.893081564550492 ], [ 14.314985990441137, 41.89332855086554 ], [ 14.315428134915695, 41.893465568477914 ], [ 14.316974665811887, 41.894050941451269 ], [ 14.317707080957454, 41.894291502380632 ], [ 14.318105404497, 41.894318015330718 ], [ 14.318612146305506, 41.894298978817936 ], [ 14.31963367408161, 41.894728651725124 ], [ 14.320181969912685, 41.894901230144526 ], [ 14.320801539823586, 41.895061491484881 ], [ 14.321342712337785, 41.895238896262022 ], [ 14.321974634765798, 41.895475098055435 ], [ 14.322873551283566, 41.895896936681737 ], [ 14.323153303071118, 41.896063979702816 ], [ 14.32341841923787, 41.896254208293357 ], [ 14.323793095131842, 41.896358320375199 ] ] ] ] } }
]
}
