{
  "type": "FeatureCollection",
  "features": [
    {
      "type": "Feature",
      "geometry": {
        "type": "Point",
        "coordinates": [
          14.293849128970562,
          41.856523100959095
        ]
      },
      "properties": {
        "Num Ord": 1,
        "SPECIE FUNGINA": "Caloscypha fulgens",
        "Commestibilità": "non commestibile",
        "ATLANTE \nRilievo n.": 52,
        "Habitat": "boschi umidi di conifere o misti",
        "Foto": [
          "foto_atlante/Caloscypha%20fulgens%201.jpeg",
          "foto_atlante/Caloscypha%20fulgens%202.jpeg"
        ]
      }
    },
    {
      "type": "Feature",
      "geometry": {
        "type": "Point",
        "coordinates": [
          14.2952233,
          41.8620017
        ]
      },
      "properties": {
        "Num Ord": 3,
        "SPECIE FUNGINA": "Clitocybe nebularis",
        "Commestibilità": "non commestibile",
        "ATLANTE \nRilievo n.": 23,
        "Habitat": "Boschi di latifoglie, di conifere e misti",
        "Foto": [
          "foto_atlante/Clitocybe%20nebularis%201.jpeg",
          "foto_atlante/Clitocybe%20nebularis%202.jpeg"
        ]
      }
    },
    {
      "type": "Feature",
      "geometry": {
        "type": "Point",
        "coordinates": [
          14.29444,
          41.8620383
        ]
      },
      "properties": {
        "Num Ord": 4,
        "SPECIE FUNGINA": "Clitocybe nebularis",
        "Commestibilità": "non commestibile",
        "ATLANTE \nRilievo n.": 24,
        "Habitat": "Boschi di latifoglie, di conifere e misti",
        "Foto": [
          "foto_atlante/Clitocybe%20nebularis%201.jpeg",
          "foto_atlante/Clitocybe%20nebularis%202.jpeg"
        ]
      }
    },
    {
      "type": "Feature",
      "geometry": {
        "type": "Point",
        "coordinates": [
          14.3002594,
          41.8567048
        ]
      },
      "properties": {
        "Num Ord": 5,
        "SPECIE FUNGINA": "Clitocybe nebularis",
        "Commestibilità": "non commestibile",
        "ATLANTE \nRilievo n.": 36,
        "Habitat": "Boschi di latifoglie, di conifere e misti",
        "Foto": [
          "foto_atlante/Clitocybe%20nebularis%201.jpeg",
          "foto_atlante/Clitocybe%20nebularis%202.jpeg"
        ]
      }
    },
    {
      "type": "Feature",
      "geometry": {
        "type": "Point",
        "coordinates": [
          14.3003252,
          41.8567025
        ]
      },
      "properties": {
        "Num Ord": 6,
        "SPECIE FUNGINA": "Clitocybe nebularis",
        "Commestibilità": "non commestibile",
        "ATLANTE \nRilievo n.": 37,
        "Habitat": "Boschi di latifoglie, di conifere e misti",
        "Foto": [
          "foto_atlante/Clitocybe%20nebularis%201.jpeg",
          "foto_atlante/Clitocybe%20nebularis%202.jpeg"
        ]
      }
    },
    {
      "type": "Feature",
      "geometry": {
        "type": "Point",
        "coordinates": [
          14.3022476,
          41.857918
        ]
      },
      "properties": {
        "Num Ord": 7,
        "SPECIE FUNGINA": "Clitocybe nebularis",
        "Commestibilità": "non commestibile",
        "ATLANTE \nRilievo n.": 41,
        "Habitat": "Boschi di latifoglie, di conifere e misti",
        "Foto": [
          "foto_atlante/Clitocybe%20nebularis%201.jpeg",
          "foto_atlante/Clitocybe%20nebularis%202.jpeg"
        ]
      }
    },
    {
      "type": "Feature",
      "geometry": {
        "type": "Point",
        "coordinates": [
          14.3020488,
          41.8567243
        ]
      },
      "properties": {
        "Num Ord": 8,
        "SPECIE FUNGINA": "Clitocybe nebularis",
        "Commestibilità": "non commestibile",
        "ATLANTE \nRilievo n.": 44,
        "Habitat": "Boschi di latifoglie, di conifere e misti",
        "Foto": [
          "foto_atlante/Clitocybe%20nebularis%201.jpeg",
          "foto_atlante/Clitocybe%20nebularis%202.jpeg"
        ]
      }
    },
    {
      "type": "Feature",
      "geometry": {
        "type": "Point",
        "coordinates": [
          14.2920711,
          41.8621987
        ]
      },
      "properties": {
        "Num Ord": 9,
        "SPECIE FUNGINA": "Clitocybe nebularis",
        "Commestibilità": "non commestibile",
        "ATLANTE \nRilievo n.": 45,
        "Habitat": "Boschi di latifoglie, di conifere e misti",
        "Foto": [
          "foto_atlante/Clitocybe%20nebularis%201.jpeg",
          "foto_atlante/Clitocybe%20nebularis%202.jpeg"
        ]
      }
    },
    {
      "type": "Feature",
      "geometry": {
        "type": "Point",
        "coordinates": [
          14.2937433,
          41.8623117
        ]
      },
      "properties": {
        "Num Ord": 10,
        "SPECIE FUNGINA": "Collybia nuda",
        "Commestibilità": "commestibile (dopo accurata cottura)",
        "ATLANTE \nRilievo n.": 28,
        "Habitat": "Boschi di latifoglie, conifere,  margini di sentieri boschivi",
        "Foto": [
          "foto_atlante/Collybia%20nuda%201.jpeg",
          "foto_atlante/Collybia%20nuda%202.jpeg"
        ]
      }
    },
    {
      "type": "Feature",
      "geometry": {
        "type": "Point",
        "coordinates": [
          14.2937317,
          41.8623117
        ]
      },
      "properties": {
        "Num Ord": 11,
        "SPECIE FUNGINA": "Collybia nuda",
        "Commestibilità": "commestibile (dopo accurata cottura)",
        "ATLANTE \nRilievo n.": 29,
        "Habitat": "Boschi di latifoglie, conifere,  margini di sentieri boschivi",
        "Foto": [
          "foto_atlante/Collybia%20nuda%201.jpeg",
          "foto_atlante/Collybia%20nuda%202.jpeg"
        ]
      }
    },
    {
      "type": "Feature",
      "geometry": {
        "type": "Point",
        "coordinates": [
          14.29317750232068,
          41.85835728681938
        ]
      },
      "properties": {
        "Num Ord": 12,
        "SPECIE FUNGINA": "Coprinellun disseminatus",
        "Commestibilità": "non commestibile",
        "ATLANTE \nRilievo n.": 47,
        "Habitat": "Boschi di latifoglie",
        "Foto": [
          "foto_atlante/Coprinellun%20disseminatus%201.jpeg"
        ]
      }
    },
    {
      "type": "Feature",
      "geometry": {
        "type": "Point",
        "coordinates": [
          14.2917636,
          41.864892
        ]
      },
      "properties": {
        "Num Ord": 13,
        "SPECIE FUNGINA": "Coprinus comatus",
        "Commestibilità": "Commestibile",
        "ATLANTE \nRilievo n.": 1,
        "Habitat": "Prati, pascoli, bordi di strade e sentieri boschivi",
        "Foto": [
          "foto_atlante/Coprinus%20comatus%201.jpeg",
          "foto_atlante/Coprinus%20comatus%202.jpeg"
        ]
      }
    },
    {
      "type": "Feature",
      "geometry": {
        "type": "Point",
        "coordinates": [
          14.294207329850499,
          41.8582905900734
        ]
      },
      "properties": {
        "Num Ord": 14,
        "SPECIE FUNGINA": "Disciotis venosa",
        "Commestibilità": "commestibile (dopo accurata cottura)",
        "ATLANTE \nRilievo n.": 48,
        "Habitat": "boschi di latifoglie o ai loro margini",
        "Foto": [
          "foto_atlante/Disciotis%20venosa%201.jpeg",
          "foto_atlante/Disciotis%20venosa%202.jpg"
        ]
      }
    },
    {
      "type": "Feature",
      "geometry": {
        "type": "Point",
        "coordinates": [
          14.2952483,
          41.860825
        ]
      },
      "properties": {
        "Num Ord": 15,
        "SPECIE FUNGINA": "Fomitopsis pinicola",
        "Commestibilità": "non commestibile",
        "ATLANTE \nRilievo n.": 11,
        "Habitat": "Associato a conifere",
        "Foto": [
          "foto_atlante/Fomitopsis%20pinicola%201.jpeg",
          "foto_atlante/Fomitopsis%20pinicola%202.jpeg"
        ]
      }
    },
    {
      "type": "Feature",
      "geometry": {
        "type": "Point",
        "coordinates": [
          14.3030136,
          41.8569801
        ]
      },
      "properties": {
        "Num Ord": 16,
        "SPECIE FUNGINA": "Fomitopsis pinicola",
        "Commestibilità": "non commestibile",
        "ATLANTE \nRilievo n.": 43,
        "Habitat": "Associato a conifere",
        "Foto": [
          "foto_atlante/Fomitopsis%20pinicola%201.jpeg",
          "foto_atlante/Fomitopsis%20pinicola%202.jpeg"
        ]
      }
    },
    {
      "type": "Feature",
      "geometry": {
        "type": "Point",
        "coordinates": [
          14.2949417,
          41.8602033
        ]
      },
      "properties": {
        "Num Ord": 17,
        "SPECIE FUNGINA": "Ganoderma carnosum",
        "Commestibilità": "non commestibile",
        "ATLANTE \nRilievo n.": 19,
        "Habitat": "Associato a conifere",
        "Foto": [
          "foto_atlante/Ganoderma%20carnosum%201.jpeg",
          "foto_atlante/Ganoderma%20carnosum%202.jpeg"
        ]
      }
    },
    {
      "type": "Feature",
      "geometry": {
        "type": "Point",
        "coordinates": [
          14.3013767,
          41.8576767
        ]
      },
      "properties": {
        "Num Ord": 18,
        "SPECIE FUNGINA": "Ganoderma carnosum",
        "Commestibilità": "non commestibile",
        "ATLANTE \nRilievo n.": 39,
        "Habitat": "Associato a conifere",
        "Foto": [
          "foto_atlante/Ganoderma%20carnosum%201.jpeg",
          "foto_atlante/Ganoderma%20carnosum%202.jpeg"
        ]
      }
    },
    {
      "type": "Feature",
      "geometry": {
        "type": "Point",
        "coordinates": [
          14.2948717,
          41.8603467
        ]
      },
      "properties": {
        "Num Ord": 19,
        "SPECIE FUNGINA": "Hydnum repandum",
        "Commestibilità": "commestibile",
        "ATLANTE \nRilievo n.": 18,
        "Habitat": "Boschi di latifoglie, di conifere e misti",
        "Foto": [
          "foto_atlante/Hydnum%20repandum%201.jpeg",
          "foto_atlante/Hydnum%20repandum%202.jpeg"
        ]
      }
    },
    {
      "type": "Feature",
      "geometry": {
        "type": "Point",
        "coordinates": [
          14.295371482710296,
          41.857423526045785
        ]
      },
      "properties": {
        "Num Ord": 20,
        "SPECIE FUNGINA": "Hygrophorus marzuolus",
        "Commestibilità": "commestibile",
        "ATLANTE \nRilievo n.": 49,
        "Habitat": "Boschi di latifoglie e conifere",
        "Foto": [
          "foto_atlante/Hygrophorus%20marzuolus%201.jpeg",
          "foto_atlante/Hygrophorus%20marzuolus%202.jpeg"
        ]
      }
    },
    {
      "type": "Feature",
      "geometry": {
        "type": "Point",
        "coordinates": [
          14.2895733,
          41.8522883
        ]
      },
      "properties": {
        "Num Ord": 21,
        "SPECIE FUNGINA": "Hypholoma fasciculare",
        "Commestibilità": "non commestibile",
        "ATLANTE \nRilievo n.": 33,
        "Habitat": "Boschi di latifoglie e  di conifere",
        "Foto": [
          "foto_atlante/Hypholoma%20fasciculare%201.jpeg",
          "foto_atlante/Hypholoma%20fasciculare%202.jpeg"
        ]
      }
    },
    {
      "type": "Feature",
      "geometry": {
        "type": "Point",
        "coordinates": [
          14.293005,
          41.86239
        ]
      },
      "properties": {
        "Num Ord": 22,
        "SPECIE FUNGINA": "Infundibulicybe gibba",
        "Commestibilità": "commestibile",
        "ATLANTE \nRilievo n.": 30,
        "Habitat": "Boschi di latifoglie, di conifere e misti",
        "Foto": [
          "foto_atlante/Infundibulicybe%20gibba%201.jpeg",
          "foto_atlante/Infundibulicybe%20gibba%202.jpg"
        ]
      }
    },
    {
      "type": "Feature",
      "geometry": {
        "type": "Point",
        "coordinates": [
          14.298192314639804,
          41.85809049941813
        ]
      },
      "properties": {
        "Num Ord": 23,
        "SPECIE FUNGINA": "Laccaria amethystina",
        "Commestibilità": "non commestibile",
        "ATLANTE \nRilievo n.": 50,
        "Habitat": "Boschi di latifoglie e conifere",
        "Foto": [
          "foto_atlante/Laccaria%20amethystina%201.jpeg"
        ]
      }
    },
    {
      "type": "Feature",
      "geometry": {
        "type": "Point",
        "coordinates": [
          14.29505,
          41.8600633
        ]
      },
      "properties": {
        "Num Ord": 24,
        "SPECIE FUNGINA": "Laccaria laccata",
        "Commestibilità": "commestibile, ma di scarso valore",
        "ATLANTE \nRilievo n.": 16,
        "Habitat": "Boschi di latifoglie, conifere,  margini di sentieri e terreni erbosi",
        "Foto": [
          "foto_atlante/Laccaria%20laccata%201.jpeg"
        ]
      }
    },
    {
      "type": "Feature",
      "geometry": {
        "type": "Point",
        "coordinates": [
          14.2911532,
          41.8610766
        ]
      },
      "properties": {
        "Num Ord": 25,
        "SPECIE FUNGINA": "Lactarius salmonicolor",
        "Commestibilità": "Commestibile",
        "ATLANTE \nRilievo n.": 8,
        "Habitat": "Simbionte quasi esclusivo dell'abete bianco",
        "Foto": [
          "foto_atlante/Lactarius%20salmonicolor%201.jpeg"
        ]
      }
    },
    {
      "type": "Feature",
      "geometry": {
        "type": "Point",
        "coordinates": [
          14.2952,
          41.860625
        ]
      },
      "properties": {
        "Num Ord": 26,
        "SPECIE FUNGINA": "Lactarius salmonicolor",
        "Commestibilità": "Commestibile",
        "ATLANTE \nRilievo n.": 12,
        "Habitat": "Simbionte quasi esclusivo dell'abete bianco",
        "Foto": [
          "foto_atlante/Lactarius%20salmonicolor%201.jpeg"
        ]
      }
    },
    {
      "type": "Feature",
      "geometry": {
        "type": "Point",
        "coordinates": [
          14.2950583,
          41.861145
        ]
      },
      "properties": {
        "Num Ord": 27,
        "SPECIE FUNGINA": "Lactarius salmonicolor",
        "Commestibilità": "Commestibile",
        "ATLANTE \nRilievo n.": 20,
        "Habitat": "Simbionte quasi esclusivo dell'abete bianco",
        "Foto": [
          "foto_atlante/Lactarius%20salmonicolor%201.jpeg"
        ]
      }
    },
    {
      "type": "Feature",
      "geometry": {
        "type": "Point",
        "coordinates": [
          14.2950267,
          41.8599783
        ]
      },
      "properties": {
        "Num Ord": 28,
        "SPECIE FUNGINA": "Lactarius salmonicolor",
        "Commestibilità": "Commestibile",
        "ATLANTE \nRilievo n.": 17,
        "Habitat": "Simbionte quasi esclusivo dell'abete bianco",
        "Foto": [
          "foto_atlante/Lactarius%20salmonicolor%201.jpeg"
        ]
      }
    },
    {
      "type": "Feature",
      "geometry": {
        "type": "Point",
        "coordinates": [
          14.289805,
          41.8523033
        ]
      },
      "properties": {
        "Num Ord": 29,
        "SPECIE FUNGINA": "Lactarius salmonicolor",
        "Commestibilità": "commestibile",
        "ATLANTE \nRilievo n.": 34,
        "Habitat": "Simbionte quasi esclusivo dell'abete bianco",
        "Foto": [
          "foto_atlante/Lactarius%20salmonicolor%201.jpeg"
        ]
      }
    },
    {
      "type": "Feature",
      "geometry": {
        "type": "Point",
        "coordinates": [
          14.2950733,
          41.8617083
        ]
      },
      "properties": {
        "Num Ord": 30,
        "SPECIE FUNGINA": "Macrolepiota procera",
        "Commestibilità": "commestibile",
        "ATLANTE \nRilievo n.": 22,
        "Habitat": "Boschi di latifoglie, conifere,  radure, margini di sentieri, prati e pascoli",
        "Foto": [
          "foto_atlante/Macrolepiota%20procera%201.jpeg"
        ]
      }
    },
    {
      "type": "Feature",
      "geometry": {
        "type": "Point",
        "coordinates": [
          14.2912813,
          41.8617953
        ]
      },
      "properties": {
        "Num Ord": 31,
        "SPECIE FUNGINA": "Melanoleuca cognata",
        "Commestibilità": "commestibile, ma di scarso valore",
        "ATLANTE \nRilievo n.": 46,
        "Habitat": "Boschi di latifoglie, conifere,  margini di sentieri e terreni erbosi",
        "Foto": [
          "foto_atlante/Melanoleuca%20cognata%201.jpeg"
        ]
      }
    },
    {
      "type": "Feature",
      "geometry": {
        "type": "Point",
        "coordinates": [
          14.295145,
          41.86164
        ]
      },
      "properties": {
        "Num Ord": 32,
        "SPECIE FUNGINA": "Mycena pura",
        "Commestibilità": "non commestibile",
        "ATLANTE \nRilievo n.": 21,
        "Habitat": "Boschi di latifoglie, conifere",
        "Foto": [
          "foto_atlante/Mycena%20pura%201.jpeg"
        ]
      }
    },
    {
      "type": "Feature",
      "geometry": {
        "type": "Point",
        "coordinates": [
          14.290904387622009,
          41.863315598821146
        ]
      },
      "properties": {
        "Num Ord": 33,
        "SPECIE FUNGINA": "Prunulus roseus",
        "Commestibilità": "non commestibile",
        "ATLANTE \nRilievo n.": 2,
        "Habitat": "boschi di latifoglie e occasionalmente di conifere o misti",
        "Foto": [
          "foto_atlante/Prunulus%20roseus%201.jpeg"
        ]
      }
    },
    {
      "type": "Feature",
      "geometry": {
        "type": "Point",
        "coordinates": [
          14.2911863842693,
          41.863080497642294
        ]
      },
      "properties": {
        "Num Ord": 34,
        "SPECIE FUNGINA": "Prunulus roseus",
        "Commestibilità": "non commestibile",
        "ATLANTE \nRilievo n.": 4,
        "Habitat": "boschi di latifoglie e occasionalmente di conifere o misti",
        "Foto": [
          "foto_atlante/Prunulus%20roseus%201.jpeg"
        ]
      }
    },
    {
      "type": "Feature",
      "geometry": {
        "type": "Point",
        "coordinates": [
          14.29126,
          41.8621783
        ]
      },
      "properties": {
        "Num Ord": 35,
        "SPECIE FUNGINA": "Prunulus roseus",
        "Commestibilità": "non commestibile",
        "ATLANTE \nRilievo n.": 5,
        "Habitat": "boschi di latifoglie e occasionalmente di conifere o misti",
        "Foto": [
          "foto_atlante/Prunulus%20roseus%201.jpeg"
        ]
      }
    },
    {
      "type": "Feature",
      "geometry": {
        "type": "Point",
        "coordinates": [
          14.2911907,
          41.8609729
        ]
      },
      "properties": {
        "Num Ord": 36,
        "SPECIE FUNGINA": "Prunulus roseus",
        "Commestibilità": "non commestibile",
        "ATLANTE \nRilievo n.": 7,
        "Habitat": "boschi di latifoglie e occasionalmente di conifere o misti",
        "Foto": [
          "foto_atlante/Prunulus%20roseus%201.jpeg"
        ]
      }
    },
    {
      "type": "Feature",
      "geometry": {
        "type": "Point",
        "coordinates": [
          14.290831784472084,
          41.860877895284574
        ]
      },
      "properties": {
        "Num Ord": 37,
        "SPECIE FUNGINA": "Prunulus roseus",
        "Commestibilità": "non commestibile",
        "ATLANTE \nRilievo n.": 9,
        "Habitat": "boschi di latifoglie e occasionalmente di conifere o misti",
        "Foto": [
          "foto_atlante/Prunulus%20roseus%201.jpeg"
        ]
      }
    },
    {
      "type": "Feature",
      "geometry": {
        "type": "Point",
        "coordinates": [
          14.29434,
          41.8620417
        ]
      },
      "properties": {
        "Num Ord": 38,
        "SPECIE FUNGINA": "Ramaria pallida",
        "Commestibilità": "non commestibile",
        "ATLANTE \nRilievo n.": 26,
        "Habitat": "conifere e boschi misti con latifoglie.",
        "Foto": [
          "foto_atlante/Ramaria%20pallida%201.jpeg"
        ]
      }
    },
    {
      "type": "Feature",
      "geometry": {
        "type": "Point",
        "coordinates": [
          14.292058124570875,
          41.856989989623585
        ]
      },
      "properties": {
        "Num Ord": 39,
        "SPECIE FUNGINA": "Russula romellii",
        "Commestibilità": "Commestibile",
        "ATLANTE \nRilievo n.": 53,
        "Habitat": "Boschi di latifoglie",
        "Foto": [
          "foto_atlante/Russula%20romellii%201.jpeg"
        ]
      }
    },
    {
      "type": "Feature",
      "geometry": {
        "type": "Point",
        "coordinates": [
          14.3031303,
          41.8568809
        ]
      },
      "properties": {
        "Num Ord": 40,
        "SPECIE FUNGINA": "Scleroderma citrinum",
        "Commestibilità": "non commestibile",
        "ATLANTE \nRilievo n.": 42,
        "Habitat": "Boschi di latifoglie e conifere",
        "Foto": [
          "foto_atlante/Scleroderma%20citrinum%201.jpeg"
        ]
      }
    },
    {
      "type": "Feature",
      "geometry": {
        "type": "Point",
        "coordinates": [
          14.2895417,
          41.8523033
        ]
      },
      "properties": {
        "Num Ord": 41,
        "SPECIE FUNGINA": "Tricholoma sulphureum",
        "Commestibilità": "non commestibile",
        "ATLANTE \nRilievo n.": 32,
        "Habitat": "Boschi di latifoglie e conifere",
        "Foto": [
          "foto_atlante/Tricholoma%20sulphureum%201.jpeg",
          "foto_atlante/Tricholoma%20sulphureum%202.jpeg"
        ]
      }
    },
    {
      "type": "Feature",
      "geometry": {
        "type": "Point",
        "coordinates": [
          14.296983386670014,
          41.85648975163834
        ]
      },
      "properties": {
        "Num Ord": 42,
        "SPECIE FUNGINA": "Tricholomopsis rutilans",
        "Commestibilità": "non commestibile",
        "ATLANTE \nRilievo n.": 51,
        "Habitat": "Boschi di conifere, con netta preferenza per pini e  abeti",
        "Foto": [
          "foto_atlante/Tricholomopsis%20rutilans%201.jpeg"
        ]
      }
    },
    {
      "type": "Feature",
      "geometry": {
        "type": "Point",
        "coordinates": [
          14.2901917,
          41.8516383
        ]
      },
      "properties": {
        "Num Ord": 43,
        "SPECIE FUNGINA": "Xerocomellus chrysenteron",
        "Commestibilità": "commestibile, ma di scarso valore",
        "ATLANTE \nRilievo n.": 35,
        "Habitat": "Boschi di latifoglie e conifere",
        "Foto": [
          "foto_atlante/Xerocomellus%20chrysenteron%201.jpg",
          "foto_atlante/Xerocomellus%20chrysenteron%202.jpg"
        ]
      }
    }
  ]
}